{
  "norad_id": 62436,
  "name": "STARLINK-32697",
  "history": [
    {
      "epoch": "2026-03-28T17:25:29.853408",
      "apogee_km": 475.7328187414132,
      "perigee_km": 474.62080004270047,
      "latitude_deg": -6.426034415578911,
      "longitude_deg": 133.29983712011017,
      "semi_major_axis_km": 6853.313809392056,
      "eccentricity": 8.113e-05,
      "inclination_deg": 53.157,
      "raan_deg": 246.8337,
      "arg_perigee_deg": 77.4072,
      "mean_anomaly_deg": 282.7019,
      "mean_motion_rev_day": 15.30212814
    }
  ]
}